start=new Date('2022-04-14T00:00:00.000Z').valueOf();
sats=[{"TLE_LINE2":"2 49408  53.2165 149.6743 0002180  33.4239  87.8191 15.08835418  3604","BSTAR":"0.00169530000000","CENTER_NAME":"EARTH","EPHEMERIS_TYPE":"0","ECCENTRICITY":"0.00021800","DECAY_DATE":null,"REF_FRAME":"TEME","INCLINATION":"53.2165","MEAN_MOTION_DDOT":"0.0000000000000","CLASSIFICATION_TYPE":"U","EPOCH":"2022-04-13T22:00:00.999936","SITE":"AFETR","LAUNCH_DATE":"2021-11-13","TIME_SYSTEM":"UTC","RA_OF_ASC_NODE":"149.6743","NORAD_CAT_ID":"49408","OBJECT_TYPE":"PAYLOAD","APOAPSIS":"541.267","GP_ID":"201176424","RCS_SIZE":"LARGE","REV_AT_EPOCH":"360","COUNTRY_CODE":"US","TLE_LINE1":"1 49408U 21104A   22103.91667824  .00026793  00000-0  16953-2 0  9997","OBJECT_NAME":"STARLINK-3151","MEAN_ANOMALY":"87.8191","MEAN_MOTION_DOT":"0.00026793","MEAN_MOTION":"15.08835418","MEAN_ELEMENT_THEORY":"SGP4","ELEMENT_SET_NO":"999","PERIAPSIS":"538.251","PERIOD":"95.438","SEMIMAJOR_AXIS":"6917.894","OBJECT_ID":"2021-104A","ARG_OF_PERICENTER":"33.4239","FILE":"3400454"},{"MEAN_ANOMALY":"7.4418","OBJECT_NAME":"STARLINK-3075","MEAN_MOTION_DOT":"0.00023417","TLE_LINE1":"1 49409U 21104B   22103.91667824  .00023417  00000-0  14842-2 0  9993","SEMIMAJOR_AXIS":"6917.856","PERIAPSIS":"538.213","PERIOD":"95.437","OBJECT_ID":"2021-104B","ARG_OF_PERICENTER":"33.8210","FILE":"3400454","MEAN_MOTION":"15.08847843","MEAN_ELEMENT_THEORY":"SGP4","ELEMENT_SET_NO":"999","APOAPSIS":"541.230","GP_ID":"201176674","RCS_SIZE":"LARGE","RA_OF_ASC_NODE":"149.6725","TIME_SYSTEM":"UTC","NORAD_CAT_ID":"49409","OBJECT_TYPE":"PAYLOAD","COUNTRY_CODE":"US","REV_AT_EPOCH":"362","INCLINATION":"53.2182","EPOCH":"2022-04-13T22:00:00.999936","SITE":"AFETR","LAUNCH_DATE":"2021-11-13","MEAN_MOTION_DDOT":"0.0000000000000","CLASSIFICATION_TYPE":"U","DECAY_DATE":null,"ECCENTRICITY":"0.00021810","REF_FRAME":"TEME","TLE_LINE2":"2 49409  53.2182 149.6725 0002181  33.8210   7.4418 15.08847843  3625","BSTAR":"0.00148420000000","CENTER_NAME":"EARTH","EPHEMERIS_TYPE":"0"},{"REV_AT_EPOCH":"360","COUNTRY_CODE":"US","NORAD_CAT_ID":"49410","OBJECT_TYPE":"PAYLOAD","TIME_SYSTEM":"UTC","RA_OF_ASC_NODE":"149.6750","GP_ID":"201176925","RCS_SIZE":"LARGE","APOAPSIS":"541.240","ELEMENT_SET_NO":"999","MEAN_MOTION":"15.08858516","MEAN_ELEMENT_THEORY":"SGP4","FILE":"3400454","SEMIMAJOR_AXIS":"6917.824","PERIAPSIS":"538.137","PERIOD":"95.436","OBJECT_ID":"2021-104C","ARG_OF_PERICENTER":"29.3043","TLE_LINE1":"1 49410U 21104C   22103.91667824  .00003300  00000-0  22523-3 0  9990","OBJECT_NAME":"STARLINK-3147","MEAN_ANOMALY":"51.9703","MEAN_MOTION_DOT":"0.00003300","CENTER_NAME":"EARTH","EPHEMERIS_TYPE":"0","BSTAR":"0.00022523000000","TLE_LINE2":"2 49410  53.2156 149.6750 0002243  29.3043  51.9703 15.08858516  3607","REF_FRAME":"TEME","ECCENTRICITY":"0.00022430","DECAY_DATE":null,"CLASSIFICATION_TYPE":"U","MEAN_MOTION_DDOT":"0.0000000000000","SITE":"AFETR","LAUNCH_DATE":"2021-11-13","EPOCH":"2022-04-13T22:00:00.999936","INCLINATION":"53.2156"},{"INCLINATION":"53.2147","SITE":"AFETR","LAUNCH_DATE":"2021-11-13","EPOCH":"2022-04-13T22:00:00.999936","CLASSIFICATION_TYPE":"U","MEAN_MOTION_DDOT":"0.0000000000000","REF_FRAME":"TEME","ECCENTRICITY":"0.00020630","DECAY_DATE":null,"CENTER_NAME":"EARTH","EPHEMERIS_TYPE":"0","TLE_LINE2":"2 49411  53.2147 139.6682 0002063  37.4071  78.8856 15.08834401  3628","BSTAR":"0.00152650000000","MEAN_ANOMALY":"78.8856","OBJECT_NAME":"STARLINK-3162","MEAN_MOTION_DOT":"0.00024086","TLE_LINE1":"1 49411U 21104D   22103.91667824  .00024086  00000-0  15265-2 0  9999","FILE":"3400454","PERIAPSIS":"538.335","SEMIMAJOR_AXIS":"6917.898","PERIOD":"95.438","ARG_OF_PERICENTER":"37.4071","OBJECT_ID":"2021-104D","ELEMENT_SET_NO":"999","MEAN_MOTION":"15.08834401","MEAN_ELEMENT_THEORY":"SGP4","GP_ID":"201177176","RCS_SIZE":"LARGE","APOAPSIS":"541.190","NORAD_CAT_ID":"49411","OBJECT_TYPE":"PAYLOAD","TIME_SYSTEM":"UTC","RA_OF_ASC_NODE":"139.6682","COUNTRY_CODE":"US","REV_AT_EPOCH":"362"},{"EPOCH":"2022-04-13T22:00:00.999936","LAUNCH_DATE":"2021-11-13","SITE":"AFETR","MEAN_MOTION_DDOT":"0.0000000000000","CLASSIFICATION_TYPE":"U","INCLINATION":"53.2162","DECAY_DATE":null,"ECCENTRICITY":"0.00022410","REF_FRAME":"TEME","TLE_LINE2":"2 49412  53.2162 149.6716 0002241  32.4660  28.7767 15.08838486  3602","BSTAR":"0.00168400000000","EPHEMERIS_TYPE":"0","CENTER_NAME":"EARTH","OBJECT_ID":"2021-104E","ARG_OF_PERICENTER":"32.4660","PERIOD":"95.438","PERIAPSIS":"538.200","SEMIMAJOR_AXIS":"6917.885","FILE":"3400454","MEAN_ELEMENT_THEORY":"SGP4","MEAN_MOTION":"15.08838486","ELEMENT_SET_NO":"999","MEAN_MOTION_DOT":"0.00026614","OBJECT_NAME":"STARLINK-3144","MEAN_ANOMALY":"28.7767","TLE_LINE1":"1 49412U 21104E   22103.91667824  .00026614  00000-0  16840-2 0  9999","COUNTRY_CODE":"US","REV_AT_EPOCH":"360","APOAPSIS":"541.300","RCS_SIZE":"LARGE","GP_ID":"201175924","TIME_SYSTEM":"UTC","RA_OF_ASC_NODE":"149.6716","OBJECT_TYPE":"PAYLOAD","NORAD_CAT_ID":"49412"},{"MEAN_MOTION_DOT":"0.00037137","OBJECT_NAME":"STARLINK-3157","MEAN_ANOMALY":"103.0642","TLE_LINE1":"1 49413U 21104F   22103.91667824  .00037137  00000-0  23403-2 0  9995","ARG_OF_PERICENTER":"33.1523","OBJECT_ID":"2021-104F","SEMIMAJOR_AXIS":"6917.934","PERIAPSIS":"538.217","PERIOD":"95.439","FILE":"3400454","MEAN_ELEMENT_THEORY":"SGP4","MEAN_MOTION":"15.08822332","ELEMENT_SET_NO":"999","APOAPSIS":"541.382","RCS_SIZE":"LARGE","GP_ID":"201176174","RA_OF_ASC_NODE":"139.6750","TIME_SYSTEM":"UTC","OBJECT_TYPE":"PAYLOAD","NORAD_CAT_ID":"49413","COUNTRY_CODE":"US","REV_AT_EPOCH":"360","INCLINATION":"53.2159","EPOCH":"2022-04-13T22:00:00.999936","LAUNCH_DATE":"2021-11-13","SITE":"AFETR","MEAN_MOTION_DDOT":"0.0000000000000","CLASSIFICATION_TYPE":"U","DECAY_DATE":null,"ECCENTRICITY":"0.00022880","REF_FRAME":"TEME","BSTAR":"0.00234030000000","TLE_LINE2":"2 49413  53.2159 139.6750 0002288  33.1523 103.0642 15.08822332  3605","EPHEMERIS_TYPE":"0","CENTER_NAME":"EARTH"},{"MEAN_MOTION_DOT":"0.00026769","MEAN_ANOMALY":"71.1664","OBJECT_NAME":"STARLINK-3146","TLE_LINE1":"1 49414U 21104G   22103.91667824  .00026769  00000-0  16941-2 0  9994","ARG_OF_PERICENTER":"30.0396","OBJECT_ID":"2021-104G","PERIOD":"95.438","PERIAPSIS":"538.288","SEMIMAJOR_AXIS":"6917.913","FILE":"3400454","MEAN_ELEMENT_THEORY":"SGP4","MEAN_MOTION":"15.08829389","ELEMENT_SET_NO":"999","APOAPSIS":"541.268","RCS_SIZE":"LARGE","GP_ID":"201177426","RA_OF_ASC_NODE":"149.6704","TIME_SYSTEM":"UTC","OBJECT_TYPE":"PAYLOAD","NORAD_CAT_ID":"49414","COUNTRY_CODE":"US","REV_AT_EPOCH":"360","INCLINATION":"53.2147","EPOCH":"2022-04-13T22:00:00.999936","LAUNCH_DATE":"2021-11-13","SITE":"AFETR","MEAN_MOTION_DDOT":"0.0000000000000","CLASSIFICATION_TYPE":"U","DECAY_DATE":null,"ECCENTRICITY":"0.00021540","REF_FRAME":"TEME","BSTAR":"0.00169410000000","TLE_LINE2":"2 49414  53.2147 149.6704 0002154  30.0396  71.1664 15.08829389  3607","EPHEMERIS_TYPE":"0","CENTER_NAME":"EARTH"},{"REV_AT_EPOCH":"360","COUNTRY_CODE":"US","OBJECT_TYPE":"PAYLOAD","NORAD_CAT_ID":"49415","RA_OF_ASC_NODE":"139.6751","TIME_SYSTEM":"UTC","RCS_SIZE":"LARGE","GP_ID":"201177677","APOAPSIS":"541.502","ELEMENT_SET_NO":"999","MEAN_ELEMENT_THEORY":"SGP4","MEAN_MOTION":"15.08830933","FILE":"3400454","ARG_OF_PERICENTER":"28.0518","OBJECT_ID":"2021-104H","PERIAPSIS":"538.044","PERIOD":"95.438","SEMIMAJOR_AXIS":"6917.908","TLE_LINE1":"1 49415U 21104H   22103.91667824  .00036953  00000-0  23283-2 0  9998","MEAN_MOTION_DOT":"0.00036953","MEAN_ANOMALY":"128.1860","OBJECT_NAME":"STARLINK-3159","EPHEMERIS_TYPE":"0","CENTER_NAME":"EARTH","BSTAR":"0.00232830000000","TLE_LINE2":"2 49415  53.2160 139.6751 0002499  28.0518 128.1860 15.08830933  3607","REF_FRAME":"TEME","DECAY_DATE":null,"ECCENTRICITY":"0.00024990","CLASSIFICATION_TYPE":"U","MEAN_MOTION_DDOT":"0.0000000000000","LAUNCH_DATE":"2021-11-13","SITE":"AFETR","EPOCH":"2022-04-13T22:00:00.999936","INCLINATION":"53.2160"},{"RCS_SIZE":"LARGE","GP_ID":"201176425","APOAPSIS":"541.326","OBJECT_TYPE":"PAYLOAD","NORAD_CAT_ID":"49416","RA_OF_ASC_NODE":"149.6612","TIME_SYSTEM":"UTC","COUNTRY_CODE":"US","REV_AT_EPOCH":"361","MEAN_MOTION_DOT":"0.00026881","MEAN_ANOMALY":"114.3811","OBJECT_NAME":"STARLINK-3133","TLE_LINE1":"1 49416U 21104J   22103.91667824  .00026881  00000-0  17014-2 0  9993","FILE":"3400454","OBJECT_ID":"2021-104J","ARG_OF_PERICENTER":"26.8709","SEMIMAJOR_AXIS":"6917.933","PERIAPSIS":"538.270","PERIOD":"95.439","ELEMENT_SET_NO":"999","MEAN_ELEMENT_THEORY":"SGP4","MEAN_MOTION":"15.08822698","REF_FRAME":"TEME","ECCENTRICITY":"0.00022090","DECAY_DATE":null,"EPHEMERIS_TYPE":"0","CENTER_NAME":"EARTH","BSTAR":"0.00170140000000","TLE_LINE2":"2 49416  53.2152 149.6612 0002209  26.8709 114.3811 15.08822698  3616","INCLINATION":"53.2152","LAUNCH_DATE":"2021-11-13","SITE":"AFETR","EPOCH":"2022-04-13T22:00:00.999936","CLASSIFICATION_TYPE":"U","MEAN_MOTION_DDOT":"0.0000000000000"},{"MEAN_ANOMALY":"325.8571","OBJECT_NAME":"STARLINK-3154","MEAN_MOTION_DOT":"0.00000954","TLE_LINE1":"1 49417U 21104K   22103.81803146  .00000954  00000-0  78036-4 0  9998","PERIOD":"95.438","PERIAPSIS":"538.096","SEMIMAJOR_AXIS":"6917.907","OBJECT_ID":"2021-104K","ARG_OF_PERICENTER":"34.2577","FILE":"3400454","MEAN_MOTION":"15.08831408","MEAN_ELEMENT_THEORY":"SGP4","ELEMENT_SET_NO":"999","APOAPSIS":"541.447","GP_ID":"201176675","RCS_SIZE":"LARGE","TIME_SYSTEM":"UTC","RA_OF_ASC_NODE":"140.1114","NORAD_CAT_ID":"49417","OBJECT_TYPE":"PAYLOAD","COUNTRY_CODE":"US","REV_AT_EPOCH":"2350","INCLINATION":"53.2168","EPOCH":"2022-04-13T19:37:57.918144","SITE":"AFETR","LAUNCH_DATE":"2021-11-13","MEAN_MOTION_DDOT":"0.0000000000000","CLASSIFICATION_TYPE":"U","DECAY_DATE":null,"ECCENTRICITY":"0.00024220","REF_FRAME":"TEME","TLE_LINE2":"2 49417  53.2168 140.1114 0002422  34.2577 325.8571 15.08831408 23501","BSTAR":"0.00007803600000","CENTER_NAME":"EARTH","EPHEMERIS_TYPE":"0"}];
